{
  "type": "FeatureCollection",
  "features": [
    {
      "type": "Feature",
      "properties": {
        "norad_id": 66726,
        "name": "FLOCK 4H-23",
        "group": "last-30-days",
        "lat": -59.95719256670416,
        "lon": 86.01202604289539,
        "alt_km": 520.6632810758538,
        "timestamp": "2025-12-27T10:28:57.514418+00:00",
        "meta_object_name": "FLOCK 4H-23",
        "meta_object_id": "2025-276BN",
        "meta_epoch": "2025-12-27T02:50:10.917024",
        "meta_mean_motion": 15.17274357,
        "meta_eccentricity": 0.0003644,
        "meta_inclination": 97.4436,
        "meta_ra_of_asc_node": 72.6337,
        "meta_arg_of_pericenter": 223.7033,
        "meta_mean_anomaly": 136.3913,
        "meta_ephemeris_type": 0,
        "meta_classification_type": "U",
        "meta_norad_cat_id": 66726,
        "meta_element_set_no": 999,
        "meta_rev_at_epoch": 430,
        "meta_bstar": 0.00032204,
        "meta_mean_motion_dot": 6.348e-05,
        "meta_mean_motion_ddot": 0,
        "tle_line1": "1 66726U 25276BN  25361.11818191  .00006348  00000+0  32204-3 0  9990",
        "tle_line2": "2 66726  97.4436  72.6337 0003644 223.7033 136.3913 15.17274357  4302"
      },
      "geometry": {
        "type": "Point",
        "coordinates": [
          86.01202604289539,
          -59.95719256670416
        ]
      }
    },
    {
      "type": "Feature",
      "properties": {
        "norad_id": 66727,
        "name": "FLOCK 4H-24",
        "group": "last-30-days",
        "lat": -49.38983780583935,
        "lon": 81.72441617011157,
        "alt_km": 519.9872701100239,
        "timestamp": "2025-12-27T10:28:57.514430+00:00",
        "meta_object_name": "FLOCK 4H-24",
        "meta_object_id": "2025-276BP",
        "meta_epoch": "2025-12-27T04:22:18.307776",
        "meta_mean_motion": 15.17381235,
        "meta_eccentricity": 0.0002941,
        "meta_inclination": 97.4435,
        "meta_ra_of_asc_node": 72.7034,
        "meta_arg_of_pericenter": 240.8883,
        "meta_mean_anomaly": 119.2056,
        "meta_ephemeris_type": 0,
        "meta_classification_type": "U",
        "meta_norad_cat_id": 66727,
        "meta_element_set_no": 999,
        "meta_rev_at_epoch": 431,
        "meta_bstar": 0.00033119,
        "meta_mean_motion_dot": 6.551e-05,
        "meta_mean_motion_ddot": 0,
        "tle_line1": "1 66727U 25276BP  25361.18215634  .00006551  00000+0  33119-3 0  9993",
        "tle_line2": "2 66727  97.4435  72.7034 0002941 240.8883 119.2056 15.17381235  4312"
      },
      "geometry": {
        "type": "Point",
        "coordinates": [
          81.72441617011157,
          -49.38983780583935
        ]
      }
    },
    {
      "type": "Feature",
      "properties": {
        "norad_id": 66728,
        "name": "FLOCK 4H-25",
        "group": "last-30-days",
        "lat": 41.0805701549365,
        "lon": 66.43267943305025,
        "alt_km": 507.4796128563421,
        "timestamp": "2025-12-27T10:28:57.514440+00:00",
        "meta_object_name": "FLOCK 4H-25",
        "meta_object_id": "2025-276BQ",
        "meta_epoch": "2025-12-27T03:58:24.307104",
        "meta_mean_motion": 15.18268755,
        "meta_eccentricity": 0.0001756,
        "meta_inclination": 97.4391,
        "meta_ra_of_asc_node": 72.7065,
        "meta_arg_of_pericenter": 114.5398,
        "meta_mean_anomaly": 245.6019,
        "meta_ephemeris_type": 0,
        "meta_classification_type": "U",
        "meta_norad_cat_id": 66728,
        "meta_element_set_no": 999,
        "meta_rev_at_epoch": 359,
        "meta_bstar": 0.00036989,
        "meta_mean_motion_dot": 7.514e-05,
        "meta_mean_motion_ddot": 0,
        "tle_line1": "1 66728U 25276BQ  25361.16555911  .00007514  00000+0  36989-3 0  9995",
        "tle_line2": "2 66728  97.4391  72.7065 0001756 114.5398 245.6019 15.18268755  3593"
      },
      "geometry": {
        "type": "Point",
        "coordinates": [
          66.43267943305025,
          41.0805701549365
        ]
      }
    },
    {
      "type": "Feature",
      "properties": {
        "norad_id": 66729,
        "name": "FLOCK 4H-26",
        "group": "last-30-days",
        "lat": -68.84743316991648,
        "lon": 92.65982776247841,
        "alt_km": 519.9466485535941,
        "timestamp": "2025-12-27T10:28:57.514450+00:00",
        "meta_object_name": "FLOCK 4H-26",
        "meta_object_id": "2025-276BR",
        "meta_epoch": "2025-12-27T04:27:35.725824",
        "meta_mean_motion": 15.1720388,
        "meta_eccentricity": 0.0003721,
        "meta_inclination": 97.4386,
        "meta_ra_of_asc_node": 72.6783,
        "meta_arg_of_pericenter": 240.1679,
        "meta_mean_anomaly": 119.9185,
        "meta_ephemeris_type": 0,
        "meta_classification_type": "U",
        "meta_norad_cat_id": 66729,
        "meta_element_set_no": 999,
        "meta_rev_at_epoch": 431,
        "meta_bstar": 0.00038668,
        "meta_mean_motion_dot": 7.622e-05,
        "meta_mean_motion_ddot": 0,
        "tle_line1": "1 66729U 25276BR  25361.18583016  .00007622  00000+0  38668-3 0  9991",
        "tle_line2": "2 66729  97.4386  72.6783 0003721 240.1679 119.9185 15.17203880  4311"
      },
      "geometry": {
        "type": "Point",
        "coordinates": [
          92.65982776247841,
          -68.84743316991648
        ]
      }
    },
    {
      "type": "Feature",
      "properties": {
        "norad_id": 66730,
        "name": "FLOCK 4H-27",
        "group": "last-30-days",
        "lat": 27.32525142087272,
        "lon": 69.08814534911258,
        "alt_km": 510.315639899286,
        "timestamp": "2025-12-27T10:28:57.514460+00:00",
        "meta_object_name": "FLOCK 4H-27",
        "meta_object_id": "2025-276BS",
        "meta_epoch": "2025-12-27T04:02:01.599648",
        "meta_mean_motion": 15.1809237,
        "meta_eccentricity": 7.15e-05,
        "meta_inclination": 97.4364,
        "meta_ra_of_asc_node": 72.6938,
        "meta_arg_of_pericenter": 81.6314,
        "meta_mean_anomaly": 278.5001,
        "meta_ephemeris_type": 0,
        "meta_classification_type": "U",
        "meta_norad_cat_id": 66730,
        "meta_element_set_no": 999,
        "meta_rev_at_epoch": 431,
        "meta_bstar": -0.00075379,
        "meta_mean_motion_dot": -0.00015388,
        "meta_mean_motion_ddot": 0,
        "tle_line1": "1 66730U 25276BS  25361.16807407 -.00015388  00000+0 -75379-3 0  9994",
        "tle_line2": "2 66730  97.4364  72.6938 0000715  81.6314 278.5001 15.18092370  4315"
      },
      "geometry": {
        "type": "Point",
        "coordinates": [
          69.08814534911258,
          27.32525142087272
        ]
      }
    },
    {
      "type": "Feature",
      "properties": {
        "norad_id": 66731,
        "name": "FLOCK 4H-28",
        "group": "last-30-days",
        "lat": -67.44632063489692,
        "lon": 91.25416716445974,
        "alt_km": 520.1642492358433,
        "timestamp": "2025-12-27T10:28:57.514470+00:00",
        "meta_object_name": "FLOCK 4H-28",
        "meta_object_id": "2025-276BT",
        "meta_epoch": "2025-12-27T04:27:11.823264",
        "meta_mean_motion": 15.17190586,
        "meta_eccentricity": 0.0003323,
        "meta_inclination": 97.4375,
        "meta_ra_of_asc_node": 72.6743,
        "meta_arg_of_pericenter": 241.1208,
        "meta_mean_anomaly": 118.9692,
        "meta_ephemeris_type": 0,
        "meta_classification_type": "U",
        "meta_norad_cat_id": 66731,
        "meta_element_set_no": 999,
        "meta_rev_at_epoch": 431,
        "meta_bstar": 0.00037446,
        "meta_mean_motion_dot": 7.376e-05,
        "meta_mean_motion_ddot": 0,
        "tle_line1": "1 66731U 25276BT  25361.18555351  .00007376  00000+0  37446-3 0  9994",
        "tle_line2": "2 66731  97.4375  72.6743 0003323 241.1208 118.9692 15.17190586  4315"
      },
      "geometry": {
        "type": "Point",
        "coordinates": [
          91.25416716445974,
          -67.44632063489692
        ]
      }
    },
    {
      "type": "Feature",
      "properties": {
        "norad_id": 66732,
        "name": "FLOCK 4H-29",
        "group": "last-30-days",
        "lat": -53.499872381349356,
        "lon": 83.08890050563646,
        "alt_km": 520.029382210837,
        "timestamp": "2025-12-27T10:28:57.514481+00:00",
        "meta_object_name": "FLOCK 4H-29",
        "meta_object_id": "2025-276BU",
        "meta_epoch": "2025-12-27T04:23:24.059904",
        "meta_mean_motion": 15.17330085,
        "meta_eccentricity": 0.0002083,
        "meta_inclination": 97.4367,
        "meta_ra_of_asc_node": 72.6725,
        "meta_arg_of_pericenter": 256.3573,
        "meta_mean_anomaly": 103.7429,
        "meta_ephemeris_type": 0,
        "meta_classification_type": "U",
        "meta_norad_cat_id": 66732,
        "meta_element_set_no": 999,
        "meta_rev_at_epoch": 431,
        "meta_bstar": 0.00032954,
        "meta_mean_motion_dot": 6.508e-05,
        "meta_mean_motion_ddot": 0,
        "tle_line1": "1 66732U 25276BU  25361.18291736  .00006508  00000+0  32954-3 0  9994",
        "tle_line2": "2 66732  97.4367  72.6725 0002083 256.3573 103.7429 15.17330085  4312"
      },
      "geometry": {
        "type": "Point",
        "coordinates": [
          83.08890050563646,
          -53.499872381349356
        ]
      }
    }
  ]
}